ONEWEB-0564             
1 55801U 23029F   25341.92449491  .00000012  00000+0 -35922-5 0  9991
2 55801  87.9187 312.6137 0001695  95.9784 264.1542 13.20769191135908
ONEWEB-0638             
1 55802U 23029G   25342.26132147  .00000180  00000+0  45039-3 0  9990
2 55802  87.8979 327.8066 0002035  98.7615 261.3745 13.14503274134318
ONEWEB-0639             
1 55803U 23029H   25342.27686373  .00000081  00000+0  17010-3 0  9995
2 55803  87.9188 342.9684 0002631  70.5261 289.6156 13.19724124133720
ONEWEB-0640             
1 55804U 23029J   25342.19471042  .00000169  00000+0  42250-3 0  9993
2 55804  87.8983 327.8071 0002512  93.4168 266.7249 13.14503286134328
ONEWEB-0641             
1 55805U 23029K   25342.27212394  .00000016  00000+0  64752-5 0  9990
2 55805  87.9200 342.9499 0001904  84.5777 275.5573 13.19724488133731
ONEWEB-0642             
1 55806U 23029L   25342.03993655  .00000044  00000+0  77699-4 0  9995
2 55806  87.9191 343.0197 0002298  68.5704 291.5674 13.19725039133695
ONEWEB-0643             
1 55807U 23029M   25342.24069346 -.00000006  00000+0 -50164-4 0  9998
2 55807  87.8986 327.7842 0001927  64.6240 295.5089 13.14504010134305
ONEWEB-0644             
1 55808U 23029N   25342.26265664  .00000005  00000+0 -18723-4 0  9995
2 55808  87.9192 342.9848 0001947  77.6589 282.4762 13.19726069133726
